{"type": "FeatureCollection", "features": [ {"type": "Feature", "properties": {"norad_id": 42741, "name": "EUTELSAT 172B", "group": "eutelsat", "lat": -0.011485263315380018, "lon": 101.28560272831172, "alt_km": 35786.965497032405, "timestamp": "2025-12-11T13:55:01.839634+00:00", "meta": {"OBJECT_NAME": "EUTELSAT 172B", "OBJECT_ID": "2017-029B", "EPOCH": "2025-12-11T04:38:38.718816", "MEAN_MOTION": 1.00269594, "ECCENTRICITY": 7.94e-06, "INCLINATION": 0.0435, "RA_OF_ASC_NODE": 149.198, "ARG_OF_PERICENTER": 99.6922, "MEAN_ANOMALY": 72.9259, "EPHEMERIS_TYPE": 0, "CLASSIFICATION_TYPE": "U", "NORAD_CAT_ID": 42741, "ELEMENT_SET_NO": 999, "REV_AT_EPOCH": 3184, "BSTAR": 0, "MEAN_MOTION_DOT": 0, "MEAN_MOTION_DDOT": 0}, "tle": {"line1": "1 42741U 17029B   25345.19350369  .00000000  00000+0  00000+0 0  9990", "line2": "2 42741   0.0435 149.1980 0000079  99.6922  72.9259  1.00269594 31843"}}, "geometry": {"type": "Point", "coordinates": [101.28560272831172, -0.011485263315380018]}}, {"type": "Feature", "properties": {"norad_id": 44334, "name": "EUTELSAT 7C", "group": "eutelsat", "lat": 0.05292783013414491, "lon": -63.69342743276483, "alt_km": 35777.661832387785, "timestamp": "2025-12-11T13:55:01.839647+00:00", "meta": {"OBJECT_NAME": "EUTELSAT 7C", "OBJECT_ID": "2019-034B", "EPOCH": "2025-12-11T04:59:03.776640", "MEAN_MOTION": 1.00271265, "ECCENTRICITY": 0.00033171, "INCLINATION": 0.0724, "RA_OF_ASC_NODE": 179.7249, "ARG_OF_PERICENTER": 63.8945, "MEAN_ANOMALY": 278.3029, "EPHEMERIS_TYPE": 0, "CLASSIFICATION_TYPE": "U", "NORAD_CAT_ID": 44334, "ELEMENT_SET_NO": 999, "REV_AT_EPOCH": 495, "BSTAR": 0, "MEAN_MOTION_DOT": 5.4e-07, "MEAN_MOTION_DDOT": 0}, "tle": {"line1": "1 44334U 19034B   25345.20768260  .00000054  00000+0  00000+0 0  9992", "line2": "2 44334   0.0724 179.7249 0003317  63.8945 278.3029  1.00271265  4954"}}, "geometry": {"type": "Point", "coordinates": [-63.69342743276483, 0.05292783013414491]}}, {"type": "Feature", "properties": {"norad_id": 44624, "name": "EUTELSAT 5 WEST B", "group": "eutelsat", "lat": -0.0703272541268889, "lon": -75.69380839328005, "alt_km": 35772.84883372759, "timestamp": "2025-12-11T13:55:01.839672+00:00", "meta": {"OBJECT_NAME": "EUTELSAT 5 WEST B", "OBJECT_ID": "2019-067A", "EPOCH": "2025-12-11T04:55:34.110624", "MEAN_MOTION": 1.00271563, "ECCENTRICITY": 0.00034195, "INCLINATION": 0.063, "RA_OF_ASC_NODE": 345.9064, "ARG_OF_PERICENTER": 275.158, "MEAN_ANOMALY": 247.9961, "EPHEMERIS_TYPE": 0, "CLASSIFICATION_TYPE": "U", "NORAD_CAT_ID": 44624, "ELEMENT_SET_NO": 999, "REV_AT_EPOCH": 2255, "BSTAR": 0, "MEAN_MOTION_DOT": -3.6e-07, "MEAN_MOTION_DDOT": 0}, "tle": {"line1": "1 44624U 19067A   25345.20525591 -.00000036  00000+0  00000+0 0  9999", "line2": "2 44624   0.0630 345.9064 0003419 275.1580 247.9961  1.00271563 22554"}}, "geometry": {"type": "Point", "coordinates": [-75.69380839328005, -0.0703272541268889]}}, {"type": "Feature", "properties": {"norad_id": 45027, "name": "EUTELSAT KONNECT", "group": "eutelsat", "lat": -0.03743799569229062, "lon": -63.51255884553406, "alt_km": 35780.05820640451, "timestamp": "2025-12-11T13:55:01.839687+00:00", "meta": {"OBJECT_NAME": "EUTELSAT KONNECT", "OBJECT_ID": "2020-005B", "EPOCH": "2025-12-11T04:59:03.776640", "MEAN_MOTION": 1.00269339, "ECCENTRICITY": 0.00016109, "INCLINATION": 0.0696, "RA_OF_ASC_NODE": 96.3252, "ARG_OF_PERICENTER": 189.7982, "MEAN_ANOMALY": 236.0092, "EPHEMERIS_TYPE": 0, "CLASSIFICATION_TYPE": "U", "NORAD_CAT_ID": 45027, "ELEMENT_SET_NO": 999, "REV_AT_EPOCH": 2245, "BSTAR": 0, "MEAN_MOTION_DOT": 5.5e-07, "MEAN_MOTION_DDOT": 0}, "tle": {"line1": "1 45027U 20005B   25345.20768260  .00000055  00000+0  00000+0 0  9993", "line2": "2 45027   0.0696  96.3252 0001610 189.7982 236.0092  1.00269339 22458"}}, "geometry": {"type": "Point", "coordinates": [-63.51255884553406, -0.03743799569229062]}}, {"type": "Feature", "properties": {"norad_id": 49056, "name": "EUTELSAT QUANTUM", "group": "eutelsat", "lat": -0.016313197783831904, "lon": -22.971746134440178, "alt_km": 35779.18525271115, "timestamp": "2025-12-11T13:55:01.839700+00:00", "meta": {"OBJECT_NAME": "EUTELSAT QUANTUM", "OBJECT_ID": "2021-069B", "EPOCH": "2025-12-11T03:27:57.502656", "MEAN_MOTION": 1.00271833, "ECCENTRICITY": 0.00036886, "INCLINATION": 0.0182, "RA_OF_ASC_NODE": 27.6209, "ARG_OF_PERICENTER": 245.4753, "MEAN_ANOMALY": 266.7006, "EPHEMERIS_TYPE": 0, "CLASSIFICATION_TYPE": "U", "NORAD_CAT_ID": 49056, "ELEMENT_SET_NO": 999, "REV_AT_EPOCH": 1604, "BSTAR": 0, "MEAN_MOTION_DOT": 1.32e-06, "MEAN_MOTION_DDOT": 0}, "tle": {"line1": "1 49056U 21069B   25345.14441554  .00000132  00000+0  00000+0 0  9993", "line2": "2 49056   0.0182  27.6209 0003688 245.4753 266.7006  1.00271833 16041"}}, "geometry": {"type": "Point", "coordinates": [-22.971746134440178, -0.016313197783831904]}}, {"type": "Feature", "properties": {"norad_id": 53765, "name": "EUTELSAT KONNECT VHTS", "group": "eutelsat", "lat": -0.02878689219146787, "lon": -67.98237648854686, "alt_km": 35779.58595366054, "timestamp": "2025-12-11T13:55:01.839712+00:00", "meta": {"OBJECT_NAME": "EUTELSAT KONNECT VHTS", "OBJECT_ID": "2022-110A", "EPOCH": "2025-12-11T03:15:06.233184", "MEAN_MOTION": 1.00271355, "ECCENTRICITY": 0.00024632, "INCLINATION": 0.0669, "RA_OF_ASC_NODE": 100.3786, "ARG_OF_PERICENTER": 140.773, "MEAN_ANOMALY": 250.4291, "EPHEMERIS_TYPE": 0, "CLASSIFICATION_TYPE": "U", "NORAD_CAT_ID": 53765, "ELEMENT_SET_NO": 999, "REV_AT_EPOCH": 494, "BSTAR": 0, "MEAN_MOTION_DOT": 2.3e-07, "MEAN_MOTION_DDOT": 0}, "tle": {"line1": "1 53765U 22110A   25345.13548881  .00000023  00000+0  00000+0 0  9992", "line2": "2 53765   0.0669 100.3786 0002463 140.7730 250.4291  1.00271355  4945"}}, "geometry": {"type": "Point", "coordinates": [-67.98237648854686, -0.02878689219146787]}}, {"type": "Feature", "properties": {"norad_id": 54048, "name": "EUTELSAT HOTBIRD 13F", "group": "eutelsat", "lat": 0.0002206320438766943, "lon": -57.71954610799764, "alt_km": 35781.465102579576, "timestamp": "2025-12-11T13:55:01.839724+00:00", "meta": {"OBJECT_NAME": "EUTELSAT HOTBIRD 13F", "OBJECT_ID": "2022-134A", "EPOCH": "2025-12-11T05:00:48.610080", "MEAN_MOTION": 1.0026911, "ECCENTRICITY": 0.00021786, "INCLINATION": 0.0498, "RA_OF_ASC_NODE": 292.084, "ARG_OF_PERICENTER": 64.4691, "MEAN_ANOMALY": 171.8346, "EPHEMERIS_TYPE": 0, "CLASSIFICATION_TYPE": "U", "NORAD_CAT_ID": 54048, "ELEMENT_SET_NO": 999, "REV_AT_EPOCH": 1149, "BSTAR": 0, "MEAN_MOTION_DOT": 9.3e-07, "MEAN_MOTION_DDOT": 0}, "tle": {"line1": "1 54048U 22134A   25345.20889595  .00000093  00000+0  00000+0 0  9998", "line2": "2 54048   0.0498 292.0840 0002178  64.4691 171.8346  1.00269110 11492"}}, "geometry": {"type": "Point", "coordinates": [-57.71954610799764, 0.0002206320438766943]}}, {"type": "Feature", "properties": {"norad_id": 54225, "name": "EUTELSAT HOTBIRD 13G", "group": "eutelsat", "lat": 0.030558121054412562, "lon": -57.699002107574806, "alt_km": 35790.18028145607, "timestamp": "2025-12-11T13:55:01.839735+00:00", "meta": {"OBJECT_NAME": "EUTELSAT HOTBIRD 13G", "OBJECT_ID": "2022-146A", "EPOCH": "2025-12-11T05:00:48.610080", "MEAN_MOTION": 1.00270683, "ECCENTRICITY": 0.00018799, "INCLINATION": 0.0497, "RA_OF_ASC_NODE": 236.0046, "ARG_OF_PERICENTER": 307.1707, "MEAN_ANOMALY": 345.1918, "EPHEMERIS_TYPE": 0, "CLASSIFICATION_TYPE": "U", "NORAD_CAT_ID": 54225, "ELEMENT_SET_NO": 999, "REV_AT_EPOCH": 558, "BSTAR": 0, "MEAN_MOTION_DOT": 9.3e-07, "MEAN_MOTION_DDOT": 0}, "tle": {"line1": "1 54225U 22146A   25345.20889595  .00000093  00000+0  00000+0 0  9998", "line2": "2 54225   0.0497 236.0046 0001879 307.1707 345.1918  1.00270683  5587"}}, "geometry": {"type": "Point", "coordinates": [-57.699002107574806, 0.030558121054412562]}}, {"type": "Feature", "properties": {"norad_id": 54259, "name": "EUTELSAT 10B", "group": "eutelsat", "lat": -0.034938450981272816, "lon": -60.73769461617433, "alt_km": 35788.727710491694, "timestamp": "2025-12-11T13:55:01.839747+00:00", "meta": {"OBJECT_NAME": "EUTELSAT 10B", "OBJECT_ID": "2022-157A", "EPOCH": "2025-12-10T23:51:46.763136", "MEAN_MOTION": 1.00269612, "ECCENTRICITY": 7.44e-05, "INCLINATION": 0.0623, "RA_OF_ASC_NODE": 98.8019, "ARG_OF_PERICENTER": 68.7015, "MEAN_ANOMALY": 280.371, "EPHEMERIS_TYPE": 0, "CLASSIFICATION_TYPE": "U", "NORAD_CAT_ID": 54259, "ELEMENT_SET_NO": 999, "REV_AT_EPOCH": 1114, "BSTAR": 0, "MEAN_MOTION_DOT": 7.3e-07, "MEAN_MOTION_DDOT": 0}, "tle": {"line1": "1 54259U 22157A   25344.99429124  .00000073  00000+0  00000+0 0  9998", "line2": "2 54259   0.0623  98.8019 0000744  68.7015 280.3710  1.00269612 11140"}}, "geometry": {"type": "Point", "coordinates": [-60.73769461617433, -0.034938450981272816]}}, {"type": "Feature", "properties": {"norad_id": 59346, "name": "EUTELSAT 36D", "group": "eutelsat", "lat": -0.012584822732678027, "lon": -34.864355360817406, "alt_km": 35783.689620847406, "timestamp": "2025-12-11T13:55:01.839758+00:00", "meta": {"OBJECT_NAME": "EUTELSAT 36D", "OBJECT_ID": "2024-059A", "EPOCH": "2025-12-10T23:59:08.558304", "MEAN_MOTION": 1.00270665, "ECCENTRICITY": 6.527e-05, "INCLINATION": 0.0175, "RA_OF_ASC_NODE": 350.3136, "ARG_OF_PERICENTER": 350.9319, "MEAN_ANOMALY": 134.3543, "EPHEMERIS_TYPE": 0, "CLASSIFICATION_TYPE": "U", "NORAD_CAT_ID": 59346, "ELEMENT_SET_NO": 999, "REV_AT_EPOCH": 626, "BSTAR": 0, "MEAN_MOTION_DOT": 0, "MEAN_MOTION_DDOT": 0}, "tle": {"line1": "1 59346U 24059A   25344.99940461  .00000000  00000+0  00000+0 0  9995", "line2": "2 59346   0.0175 350.3136 0000652 350.9319 134.3543  1.00270665  6260"}}, "geometry": {"type": "Point", "coordinates": [-34.864355360817406, -0.012584822732678027]}}]}